NORAD_CAT_ID,OBJECT_NAME,OBJECT_TYPE,EPOCH,MEAN_MOTION,ECCENTRICITY,INCLINATION,RA_OF_ASC_NODE,ARG_OF_PERICENTER,MEAN_ANOMALY,BSTAR,MEAN_MOTION_DOT,MEAN_MOTION_DDOT,TLE_LINE0,TLE_LINE1,TLE_LINE2,SEMIMAJOR_AXIS,PERIOD,APOGEE,PERIGEE,DECAYED
49144.0,STARLINK-3100,PAYLOAD,2022-11-11 12:56:14,14.98327056,0.0003183,69.9985,115.7642,253.7644,106.3165,5.2723e-05,5.36e-06,0.0,0 STARLINK-3100,1 49144U 21082Q   22315.53906135  .00000536  00000-0  52723-4 0  9997,2 49144  69.9985 115.7642 0003183 253.7644 106.3165 14.98327056 64111,6950.2019999999975,96.107,574.279,569.855,0.0
49144.0,STARLINK-3100,PAYLOAD,2022-11-11 20:56:55,14.98329145,0.0003208,69.9985,114.9225,255.5011,104.5792,3.4926e-05,3.24e-06,0.0,0 STARLINK-3100,1 49144U 21082Q   22315.87286076  .00000324  00000-0  34926-4 0  9999,2 49144  69.9985 114.9225 0003208 255.5011 104.5792 14.98329145 64167,6950.196,96.107,574.29,569.831,0.0
49144.0,STARLINK-3100,PAYLOAD,2022-11-12 12:58:15,14.98328525,0.0003298,69.9984,113.2393,255.5543,104.525,0.00022855,2.635e-05,0.0,0 STARLINK-3100,1 49144U 21082Q   22316.54045931  .00002635  00000-0  22855-3 0  9991,2 49144  69.9984 113.2393 0003298 255.5543 104.5250 14.98328525 64264,6950.196999999999,96.107,574.355,569.77,0.0
49144.0,STARLINK-3100,PAYLOAD,2022-11-12 20:58:55,14.98334586,0.0003302,69.9998,112.3976,256.0428,104.0364,0.00027724,3.217e-05,0.0,0 STARLINK-3100,1 49144U 21082Q   22316.87425837  .00003217  00000-0  27724-3 0  9991,2 49144  69.9998 112.3976 0003302 256.0428 104.0364 14.98334586 64311,6950.179,96.107,574.339,569.749,0.0
49144.0,STARLINK-3100,PAYLOAD,2022-11-12 22:35:03,14.98335854,0.0003313,69.9997,112.2292,256.2959,103.7832,0.00029383,3.415e-05,0.0,0 STARLINK-3100,1 49144U 21082Q   22316.94101773  .00003415  00000-0  29383-3 0  9992,2 49144  69.9997 112.2292 0003313 256.2959 103.7832 14.98335854 64329,6950.175,96.107,574.342,569.737,0.0
49144.0,STARLINK-3100,PAYLOAD,2022-11-13 11:24:08,14.98342768,0.0003298,69.9998,110.8825,256.4288,103.6504,0.00034477,4.024e-05,0.0,0 STARLINK-3100,1 49144U 21082Q   22317.47509288  .00004024  00000-0  34477-3 0  9991,2 49144  69.9998 110.8825 0003298 256.4288 103.6504 14.98342768 64401,6950.153,96.106,574.311,569.726,0.0
49144.0,STARLINK-3100,PAYLOAD,2022-11-13 17:48:40,14.98344269,0.0003364,70.0003,110.2097,255.4795,104.5991,0.00029911,3.479e-05,0.0,0 STARLINK-3100,1 49144U 21082Q   22317.74213079  .00003479  00000-0  29911-3 0  9991,2 49144  70.0003 110.2097 0003364 255.4795 104.5991 14.98344269 64444,6950.149,96.106,574.352,569.6759999999998,0.0
49144.0,STARLINK-3100,PAYLOAD,2022-11-14 09:50:01,14.98332986,0.0003413,69.9995,108.5267,255.173,104.9051,2.0164e-05,1.48e-06,0.0,0 STARLINK-3100,1 49144U 21082Q   22318.40973396  .00000148  00000-0  20164-4 0  9992,2 49144  69.9995 108.5267 0003413 255.1730 104.9051 14.98332986 64546,6950.184,96.107,574.4209999999998,569.677,0.0
49144.0,STARLINK-3100,PAYLOAD,2022-11-14 11:26:08,14.98334394,0.0003417,69.9995,108.3585,255.427,104.6511,5.5525e-06,-2.7e-07,0.0,0 STARLINK-3100,1 49144U 21082Q   22318.47649290 -.00000027  00000-0  55525-5 0  9999,2 49144  69.9995 108.3585 0003417 255.4270 104.6511 14.98334394 64557,6950.179,96.107,574.419,569.669,0.0
49144.0,STARLINK-3100,PAYLOAD,2022-11-14 21:02:57,14.98337666,0.0003213,69.9982,107.3484,255.7917,104.2886,0.00011687,1.302e-05,0.0,0 STARLINK-3100,1 49144U 21082Q   22318.87705043  .00001302  00000-0  11687-3 0  9997,2 49144  69.9982 107.3484 0003213 255.7917 104.2886 14.98337666 64618,6950.169,96.107,574.2669999999998,569.8009999999998,0.0
49144.0,STARLINK-3100,PAYLOAD,2022-11-14 22:39:04,14.98347947,0.0003297,69.9982,107.18,256.2627,103.8165,-0.00010102,-1.299e-05,0.0,0 STARLINK-3100,1 49144U 21082Q   22318.94380547 -.00001299  00000-0 -10102-3 0  9991,2 49144  69.9982 107.1800 0003297 256.2627 103.8165 14.98347947 64623,6950.137,96.106,574.294,569.711,0.0
49144.0,STARLINK-3100,PAYLOAD,2022-11-15 13:04:17,14.98345177,0.000321,69.9985,105.6644,256.0968,103.9834,5.261600000000001e-05,5.35e-06,0.0,0 STARLINK-3100,1 49144U 21082Q   22319.54464287  .00000535  00000-0  52616-4 0  9999,2 49144  69.9985 105.6644 0003210 256.0968 103.9834 14.98345177 64713,6950.146,96.106,574.242,569.78,0.0
49144.0,STARLINK-3100,PAYLOAD,2022-11-15 19:28:49,14.98344872,0.0003225,69.9985,104.9911,255.5584,104.5217,9.1532e-05,1e-05,0.0,0 STARLINK-3100,1 49144U 21082Q   22319.81168112  .00001000  00000-0  91532-4 0  9995,2 49144  69.9985 104.9911 0003225 255.5584 104.5217 14.98344872 64753,6950.147,96.106,574.253,569.77,0.0
49144.0,STARLINK-3100,PAYLOAD,2022-11-15 21:04:58,14.98331471,0.0003474,69.9986,104.8236,251.4517,108.6265,-3.1843e-05,-4.73e-06,0.0,0 STARLINK-3100,1 49144U 21082Q   22319.87845082 -.00000473  00000-0 -31843-4 0  9993,2 49144  69.9986 104.8236 0003474 251.4517 108.6265 14.98331471 64760,6950.188,96.107,574.4680000000002,569.639,0.0
49144.0,STARLINK-3100,PAYLOAD,2022-11-16 09:54:02,14.98329184,0.0003324,69.9986,103.4761,252.9149,107.1646,8.0262e-05,8.65e-06,0.0,0 STARLINK-3100,1 49144U 21082Q   22320.41253101  .00000865  00000-0  80262-4 0  9992,2 49144  69.9986 103.4761 0003324 252.9149 107.1646 14.98329184 64843,6950.195,96.107,574.371,569.75,0.0
49144.0,STARLINK-3100,PAYLOAD,2022-11-16 19:30:50,14.98336156,0.0003033,69.9996,102.467,249.8723,110.211,0.00012566,1.407e-05,0.0,0 STARLINK-3100,1 49144U 21082Q   22320.81308642  .00001407  00000-0  12566-3 0  9991,2 49144  69.9996 102.4670 0003033 249.8723 110.2110 14.98336156 64907,6950.174,96.107,574.1469999999998,569.931,0.0
49144.0,STARLINK-3100,PAYLOAD,2022-11-17 03:31:30,14.98344234,0.0003211,69.9994,101.6239,253.4893,106.5914,0.00018719,2.142e-05,0.0,0 STARLINK-3100,1 49144U 21082Q   22321.14687837  .00002142  00000-0  18719-3 0  9997,2 49144  69.9994 101.6239 0003211 253.4893 106.5914 14.98344234 64955,6950.149,96.106,574.246,569.7819999999998,0.0
49144.0,STARLINK-3100,PAYLOAD,2022-11-17 09:56:02,14.98341519,0.0003102,70.0004,100.9505,251.8027,108.2794,0.00014291,1.613e-05,0.0,0 STARLINK-3100,1 49144U 21082Q   22321.41391882  .00001613  00000-0  14291-3 0  9992,2 49144  70.0004 100.9505 0003102 251.8027 108.2794 14.98341519 64990,6950.156999999997,96.106,574.178,569.866,0.0
49144.0,STARLINK-3100,PAYLOAD,2022-11-17 13:08:19,14.98334761,0.0003181,69.9989,100.6151,256.3057,103.7748,2.376800000000001e-05,1.91e-06,0.0,0 STARLINK-3100,1 49144U 21082Q   22321.54744494  .00000191  00000-0  23768-4 0  9997,2 49144  69.9989 100.6151 0003181 256.3057 103.7748 14.98334761 65017,6950.178000000001,96.107,574.254,569.832,0.0
49144.0,STARLINK-3100,PAYLOAD,2022-11-17 14:44:27,14.98334815,0.0003186,69.9988,100.4465,256.1657,103.9148,1.376e-05,7.1e-07,0.0,0 STARLINK-3100,1 49144U 21082Q   22321.61420413  .00000071  00000-0  13760-4 0  9995,2 49144  69.9988 100.4465 0003186 256.1657 103.9148 14.98334815 65028,6950.178000000001,96.107,574.257,569.8290000000002,0.0
49144.0,STARLINK-3100,PAYLOAD,2022-11-17 22:45:07,14.98337072,0.00032,69.9987,99.6046,255.9573,104.123,2.8761e-05,2.5e-06,0.0,0 STARLINK-3100,1 49144U 21082Q   22321.94800096  .00000250  00000-0  28761-4 0  9996,2 49144  69.9987  99.6046 0003200 255.9573 104.1230 14.98337072 65070,6950.170999999999,96.107,574.26,569.812,0.0
49144.0,STARLINK-3100,PAYLOAD,2022-11-18 19:34:52,14.98332385,0.0003092,70.0012,97.4149,251.9286,108.1537,0.00019097,2.186e-05,0.0,0 STARLINK-3100,1 49144U 21082Q   22322.81588079  .00002186  00000-0  19097-3 0  9998,2 49144  70.0012  97.4149 0003092 251.9286 108.1537 14.98332385 65209,6950.186,96.107,574.2,569.9019999999998,0.0
49144.0,STARLINK-3100,PAYLOAD,2022-11-19 01:59:24,14.98329579,0.0002714,70.0001,96.7422,257.5346,102.5509,-4.3442e-05,-6.11e-06,0.0,0 STARLINK-3100,1 49144U 21082Q   22323.08292716 -.00000611  00000-0 -43442-4 0  9993,2 49144  70.0001  96.7422 0002714 257.5346 102.5509 14.98329579 65244,6950.194,96.107,573.945,570.173,0.0
49144.0,STARLINK-3100,PAYLOAD,2022-11-19 08:23:57,14.98328116,0.0003129,69.9988,96.0695,256.494,103.587,9.2828e-05,1.015e-05,0.0,0 STARLINK-3100,1 49144U 21082Q   22323.34996562  .00001015  00000-0  92828-4 0  9991,2 49144  69.9988  96.0695 0003129 256.4940 103.5870 14.98328116 65281,6950.199000000001,96.107,574.238,569.889,0.0
49144.0,STARLINK-3100,PAYLOAD,2022-11-19 14:48:29,14.98330483,0.0003143999999999,69.9988,95.3964,256.0206,104.0603,0.00011549,1.285e-05,0.0,0 STARLINK-3100,1 49144U 21082Q   22323.61700409  .00001285  00000-0  11549-3 0  9993,2 49144  69.9988  95.3964 0003144 256.0206 104.0603 14.98330483 65325,6950.191,96.107,574.242,569.871,0.0
49144.0,STARLINK-3100,PAYLOAD,2022-11-20 13:14:21,14.98340598,0.000302,69.9998,93.0393,252.7446,107.3383,0.00021209,2.439e-05,0.0,0 STARLINK-3100,1 49144U 21082Q   22324.55163741  .00002439  00000-0  21209-3 0  9995,2 49144  69.9998  93.0393 0003020 252.7446 107.3383 14.98340598 65463,6950.16,96.106,574.124,569.9259999999998,0.0
49144.0,STARLINK-3100,PAYLOAD,2022-11-20 18:02:45,14.98339308,0.0003058999999999,69.9999,92.5343,264.8477,95.2333,0.00020607,2.367e-05,0.0,0 STARLINK-3100,1 49144U 21082Q   22324.75191789  .00002367  00000-0  20607-3 0  9991,2 49144  69.9999  92.5343 0003059 264.8477  95.2333 14.98339308 65493,6950.1640000000025,96.106,574.155,569.903,0.0
49144.0,STARLINK-3100,PAYLOAD,2022-11-21 02:03:26,14.98327038,0.0002994,70.0004,91.692,255.9209,104.1617,0.00014272,1.6100000000000002e-05,0.0,0 STARLINK-3100,1 49144U 21082Q   22325.08572489  .00001610  00000-0  14272-3 0  9999,2 49144  70.0004  91.6920 0002994 255.9209 104.1617 14.98327038 65543,6950.2019999999975,96.107,574.148,569.986,0.0
49144.0,STARLINK-3100,PAYLOAD,2022-11-21 11:40:14,14.98331949,0.0003125,70.0005,90.6828,258.3939,101.6869,0.00013191,1.481e-05,0.0,0 STARLINK-3100,1 49144U 21082Q   22325.48628226  .00001481  00000-0  13191-3 0  9999,2 49144  70.0005  90.6828 0003125 258.3939 101.6869 14.98331949 65608,6950.187,96.107,574.224,569.88,0.0
